{
  "norad_id": 60601,
  "name": "STARLINK-31988",
  "history": [
    {
      "epoch": "2026-03-28T17:15:27.331776",
      "apogee_km": 476.1276069646201,
      "perigee_km": 474.372591596235,
      "latitude_deg": -53.13893956328369,
      "longitude_deg": -50.86963136005215,
      "semi_major_axis_km": 6853.387099280427,
      "eccentricity": 0.00012804,
      "inclination_deg": 53.161,
      "raan_deg": 218.718,
      "arg_perigee_deg": 58.22,
      "mean_anomaly_deg": 301.8926,
      "mean_motion_rev_day": 15.30188268
    }
  ]
}